0 DELTA 1 DEB
1 21297U 75052AJ  13282.53751413  .00000060  00000-0  20973-3 0  4192
2 21297 099.8580 227.9604 0069804 265.5571 202.9446 13.32323369 89256
0 DELTA 1 DEB
1 21297U 75052AJ  13287.10949200  .00000064  00000-0  21734-3 0  4216
2 21297 099.8591 232.3467 0069766 254.4868 171.9502 13.32324611 89864
0 DELTA 1 DEB
1 21297U 75052AJ  13289.30815218  .00000081  00000-0  25304-3 0  4228
2 21297 099.8597 234.4562 0069765 249.1616 277.5997 13.32325127 90158
0 DELTA 1 DEB
1 21297U 75052AJ  13291.39953868  .00000088  00000-0  26749-3 0  4236
2 21297 099.8600 236.4629 0069760 244.0839 228.7380 13.32325591 90435
0 DELTA 1 DEB
1 21297U 75052AJ  13293.42732389  .00000111  00000-0  31323-3 0  4247
2 21297 099.8602 238.4089 0069754 239.1543 234.8282 13.32326135 90703
0 DELTA 1 DEB
1 21297U 75052AJ  13295.45476727  .00000097  00000-0  28542-3 0  4256
2 21297 099.8602 240.3546 0069771 234.2440 239.2643 13.32326489 90975
